[{"OBJECT_NAME":"GEOSCAN 2 (RS92S2)","OBJECT_ID":"2025-155Q","EPOCH":"2026-03-09T23:01:48.939744","MEAN_MOTION":15.28709337,"ECCENTRICITY":0.00085277,"INCLINATION":97.4463,"RA_OF_ASC_NODE":37.5259,"ARG_OF_PERICENTER":140.9505,"MEAN_ANOMALY":219.2352,"EPHEMERIS_TYPE":0,"CLASSIFICATION_TYPE":"U","NORAD_CAT_ID":64890,"ELEMENT_SET_NO":999,"REV_AT_EPOCH":6561,"BSTAR":0.00051551761,"MEAN_MOTION_DOT":0.00014341,"MEAN_MOTION_DDOT":0},{"OBJECT_NAME":"STARLINK-35775","OBJECT_ID":"2025-294J","EPOCH":"2026-03-09T23:07:54.185376","MEAN_MOTION":15.27589358,"ECCENTRICITY":9.529e-5,"INCLINATION":43.0036,"RA_OF_ASC_NODE":36.3117,"ARG_OF_PERICENTER":262.1519,"MEAN_ANOMALY":97.9225,"EPHEMERIS_TYPE":0,"CLASSIFICATION_TYPE":"U","NORAD_CAT_ID":67038,"ELEMENT_SET_NO":999,"REV_AT_EPOCH":1485,"BSTAR":0.00096208644,"MEAN_MOTION_DOT":0.00026314,"MEAN_MOTION_DDOT":0}]
